H1 CPF 01  gfz 2022 01 03 01  5031 terrasarx 
H2 0702601  6201 31698    2022 01 03 00 59 42 2022 01 08 00 00 42   120 1 1  0 0 0
H9
10 0 59584  46062.000000  0     735914.605   5884644.048  -3513866.285
10 0 59584  46182.000000  0     976960.097   6262136.149  -2709199.572
10 0 59584  46302.000000  0    1206591.040   6526345.545  -1856972.972
10 0 59584  46422.000000  0    1418763.412   6672816.334   -972119.242
10 0 59584  46542.000000  0    1607675.546   6699261.129    -70173.922
10 0 59584  46662.000000  0    1767911.057   6605603.656    833003.780
10 0 59584  46782.000000  0    1894574.491   6393977.209   1721517.205
10 0 59584  46902.000000  0    1983417.407   6068679.453   2579720.045
10 0 59584  47022.000000  0    2030951.350   5636084.091   3392499.599
10 0 59584  47142.000000  0    2034544.669   5104511.862   4145550.476
10 0 59584  47262.000000  0    1992499.806   4484062.563   4825631.915
10 0 59584  47382.000000  0    1904110.539   3786411.653   5420802.988
10 0 59584  47502.000000  0    1769696.693   3024580.733   5920627.835
10 0 59584  47622.000000  0    1590617.954   2212688.517   6316354.392
10 0 59584  47742.000000  0    1369264.877   1365683.273   6601062.973
10 0 59584  47862.000000  0    1109027.913    499063.158   6769780.552
10 0 59584  47982.000000  0     814245.355   -371407.526   6819561.112
10 0 59584  48102.000000  0     490130.935  -1229983.883   6749535.441
10 0 59584  48222.000000  0     142681.409  -2061225.540   6560925.872
10 0 59584  48342.000000  0    -221434.460  -2850274.334   6257026.265
10 0 59584  48462.000000  0    -595002.845  -3583121.347   5843146.504
10 0 59584  48582.000000  0    -970404.798  -4246856.050   5326523.350
10 0 59584  48702.000000  0   -1339768.443  -4829896.924   4716202.187
10 0 59584  48822.000000  0   -1695132.584  -5322202.054   4022886.638
10 0 59584  48942.000000  0   -2028616.490  -5715452.482   3258754.284
10 0 59584  49062.000000  0   -2332592.335  -6003201.642   2437242.978
10 0 59584  49182.000000  0   -2599856.137  -6180988.256   1572812.768
10 0 59584  49302.000000  0   -2823792.569  -6246411.037    680686.749
10 0 59584  49422.000000  0   -2998529.813  -6199162.386   -223424.032
10 0 59584  49542.000000  0   -3119080.427  -6041019.911  -1123605.749
10 0 59584  49662.000000  0   -3181464.806  -5775795.584  -2004030.947
10 0 59584  49782.000000  0   -3182814.108  -5409243.893  -2849244.806
10 0 59584  49902.000000  0   -3121449.834  -4948931.587  -3644442.506
10 0 59584  50022.000000  0   -2996937.742  -4404072.689  -4375730.662
10 0 59584  50142.000000  0   -2810115.867  -3785335.005  -5030367.565
10 0 59584  50262.000000  0   -2563097.100  -3104623.236  -5596979.276
10 0 59584  50382.000000  0   -2259246.748  -2374843.613  -6065748.658
10 0 59584  50502.000000  0   -1903135.006  -1609655.329  -6428575.452
10 0 59584  50622.000000  0   -1500465.461   -823213.513  -6679204.836
10 0 59584  50742.000000  0   -1057982.802    -29909.336  -6813323.577
10 0 59584  50862.000000  0    -583361.091    755887.964  -6828625.409
10 0 59584  50982.000000  0     -85072.818   1520084.607  -6724846.440
10 0 59584  51102.000000  0     427757.710   2249108.187  -6503769.063
10 0 59584  51222.000000  0     945516.871   2930143.811  -6169196.970
10 0 59584  51342.000000  0    1458278.558   3551357.271  -5726896.681
10 0 59584  51462.000000  0    1955990.065   4102100.372  -5184507.264
10 0 59584  51582.000000  0    2428666.327   4573096.304  -4551420.258
10 0 59584  51702.000000  0    2866588.749   4956602.647  -3838627.993
10 0 59584  51822.000000  0    3260504.156   5246546.869  -3058541.668
10 0 59584  51942.000000  0    3601821.011   5438631.984  -2224782.087
10 0 59584  52062.000000  0    3882797.539   5530408.288  -1351944.308
10 0 59584  52182.000000  0    4096716.447   5521309.665   -455341.160
10 0 59584  52302.000000  0    4238041.854   5412652.411    449270.269
10 0 59584  52422.000000  0    4302554.364   5207595.249   1345972.866
10 0 59584  52542.000000  0    4287459.307   4911061.821   2218976.861
10 0 59584  52662.000000  0    4191468.492   4529630.563   3052906.369
10 0 59584  52782.000000  0    4014849.166   4071388.315   3833079.922
10 0 59584  52902.000000  0    3759440.545   3545755.545   4545773.028
10 0 59584  53022.000000  0    3428640.779   2963288.680   5178462.155
10 0 59584  53142.000000  0    3027358.946   2335462.542   5720046.898
10 0 59584  53262.000000  0    2561937.542   1674438.428   6161038.808
10 0 59584  53382.000000  0    2040049.103    992824.911   6493722.441
10 0 59584  53502.000000  0    1470565.986    303434.958   6712283.694
10 0 59584  53622.000000  0     863406.990   -380953.886   6812905.697
10 0 59584  53742.000000  0     229363.583  -1047836.027   6793832.714
10 0 59584  53862.000000  0    -420092.278  -1685206.496   6655398.518
10 0 59584  53982.000000  0   -1073015.702  -2281776.911   6400020.273
10 0 59584  54102.000000  0   -1717207.343  -2827175.307   6032157.330
10 0 59584  54222.000000  0   -2340438.725  -3312126.913   5558238.757
10 0 59584  54342.000000  0   -2930685.025  -3728615.610   4986559.273
10 0 59584  54462.000000  0   -3476361.457  -4070021.543   4327140.260
10 0 59584  54582.000000  0   -3966554.714  -4331230.727   3591557.426
10 0 59584  54702.000000  0   -4391244.645  -4508715.485   2792739.785
10 0 59584  54822.000000  0   -4741512.930  -4600584.371   1944743.055
10 0 59584  54942.000000  0   -5009734.040  -4606599.285   1062498.839
10 0 59584  55062.000000  0   -5189742.227  -4528158.174    161545.650
10 0 59584  55182.000000  0   -5276970.789  -4368244.449   -742252.665
10 0 59584  55302.000000  0   -5268559.711  -4131344.102  -1632995.716
10 0 59584  55422.000000  0   -5163427.877  -3823331.576  -2495035.968
10 0 59584  55542.000000  0   -4962308.034  -3451328.242  -3313260.041
10 0 59584  55662.000000  0   -4667745.619  -3023538.724  -4073356.509
10 0 59584  55782.000000  0   -4284062.283  -2549069.084  -4762065.913
10 0 59584  55902.000000  0   -3817284.565  -2037731.206  -5367408.130
10 0 59584  56022.000000  0   -3275040.778  -1499838.639  -5878883.341
10 0 59584  56142.000000  0   -2666429.150   -945998.057  -6287644.252
10 0 59584  56262.000000  0   -2001859.767   -386901.147  -6586638.063
10 0 59584  56382.000000  0   -1292873.207    166878.891  -6770716.235
10 0 59584  56502.000000  0    -551941.591    705082.160  -6836712.327
10 0 59584  56622.000000  0     207746.339   1217947.237  -6783490.714
10 0 59584  56742.000000  0     972513.370   1696383.045  -6611964.048
10 0 59584  56862.000000  0    1728434.530   2132126.633  -6325081.775
10 0 59584  56982.000000  0    2461585.681   2517884.375  -5927784.584
10 0 59584  57102.000000  0    3158296.524   2847453.957  -5426927.668
10 0 59584  57222.000000  0    3805402.610   3115824.939  -4831173.045
10 0 59584  57342.000000  0    4390495.787   3319258.160  -4150852.149
10 0 59584  57462.000000  0    4902166.997   3455340.506  -3397796.547
10 0 59584  57582.000000  0    5330234.843   3523013.446  -2585139.297
10 0 59584  57702.000000  0    5665955.509   3522575.896  -1727090.873
10 0 59584  57822.000000  0    5902209.487   3455659.000   -838690.833
10 0 59584  57942.000000  0    6033658.330   3325173.035     64458.695
10 0 59584  58062.000000  0    6056868.623   3135227.781    966472.789
10 0 59584  58182.000000  0    5970398.248   2891027.672   1851471.226
10 0 59584  58302.000000  0    5774842.023   2598745.548   2703866.522
10 0 59584  58422.000000  0    5472837.072   2265377.009   3508647.527
10 0 59584  58542.000000  0    5069025.350   1898578.773   4251650.966
10 0 59584  58662.000000  0    4569975.391   1506496.374   4919814.231
10 0 59584  58782.000000  0    3984068.897   1097585.150   5501404.571
10 0 59584  58902.000000  0    3321351.350    680429.109   5986225.415
10 0 59584  59022.000000  0    2593349.620    263561.466   6365789.233
10 0 59584  59142.000000  0    1812866.319   -144707.681   6633458.786
10 0 59584  59262.000000  0     993751.750   -536455.367   6784558.376
10 0 59584  59382.000000  0     150655.200   -904298.757   6816451.433
10 0 59584  59502.000000  0    -701237.804  -1241533.374   6728582.543
10 0 59584  59622.000000  0   -1546478.348  -1542255.286   6522485.761
10 0 59584  59742.000000  0   -2369632.709  -1801464.244   6201758.169
10 0 59584  59862.000000  0   -3155561.997  -2015146.176   5772002.083
10 0 59584  59982.000000  0   -3889703.394  -2180336.540   5240735.831
10 0 59584  60102.000000  0   -4558345.467  -2295162.008   4617267.390
10 0 59584  60222.000000  0   -5148890.493  -2358858.690   3912535.551
10 0 59584  60342.000000  0   -5650098.769  -2371765.973   3138920.889
10 0 59584  60462.000000  0   -6052310.551  -2335297.091   2310030.258
10 0 59584  60582.000000  0   -6347641.714  -2251887.969   1440456.787
10 0 59584  60702.000000  0   -6530146.637  -2124923.563    545516.594
10 0 59584  60822.000000  0   -6595941.135  -1958643.054   -359028.539
10 0 59584  60942.000000  0   -6543285.941  -1758026.989  -1257257.815
10 0 59584  61062.000000  0   -6372625.248  -1528669.401  -2133381.057
10 0 59584  61182.000000  0   -6086581.130  -1276638.597  -2972023.533
10 0 59584  61302.000000  0   -5689904.767  -1008330.245  -3758500.419
10 0 59584  61422.000000  0   -5189386.519   -730316.077  -4479075.511
10 0 59584  61542.000000  0   -4593727.442   -449191.908  -5121199.085
10 0 59584  61662.000000  0   -3913375.644   -171429.363  -5673720.718
10 0 59584  61782.000000  0   -3160332.035     96765.654  -6127073.592
10 0 59584  61902.000000  0   -2347931.461    349584.808  -6473427.996
10 0 59584  62022.000000  0   -1490603.808    581736.344  -6706814.989
10 0 59584  62142.000000  0    -603618.147    788549.977  -6823218.881
10 0 59584  62262.000000  0     297184.558    966067.152  -6820637.598
10 0 59584  62382.000000  0    1195666.244   1111113.547  -6699113.652
10 0 59584  62502.000000  0    2075674.617   1221354.444  -6460736.145
99
